ONEWEB-0504             
1 54122U 22138K   24342.48137532  .00000002  00000+0 -27004-4 0  9997
2 54122  87.9182  55.6605 0001890  89.8996 270.2353 13.19725451103403
ONEWEB-0505             
1 54123U 22138L   24342.47821665  .00000060  00000+0  11733-3 0  9998
2 54123  87.9182  55.6536 0001690  79.0482 281.0841 13.19726133103383
ONEWEB-0506             
1 54124U 22138M   24342.52876128  .00000028  00000+0  36482-4 0  9992
2 54124  87.9180  55.6405 0001654  93.4263 266.7059 13.19726851103382
ONEWEB-0507             
1 54125U 22138N   24342.70092461  .00000067  00000+0  13437-3 0  9990
2 54125  87.9190  55.6420 0001568  95.2264 264.9048 13.19726583104321
ONEWEB-0508             
1 54126U 22138P   24342.47031476  .00000082  00000+0  17291-3 0  9993
2 54126  87.9184  55.6765 0001439  90.0134 270.1164 13.19727045103403
ONEWEB-0509             
1 54127U 22138Q   24342.52086310  .00000038  00000+0  61635-4 0  9990
2 54127  87.9181  55.6418 0001695  96.5288 263.6038 13.19726695103385
ONEWEB-0510             
1 54128U 22138R   24342.62210942  .00000024  00000+0  26442-4 0  9994
2 54128  87.9266  25.1640 0001735 106.2193 253.9131 13.20770830106716
ONEWEB-0511             
1 54129U 22138S   24342.74515422 -.00000014  00000+0 -67995-4 0  9998
2 54129  87.9181  55.6014 0002058  95.1475 264.9893 13.19725201104315
